[{"OBJECT_NAME":"MESON-1","OBJECT_ID":"2024-043AK","EPOCH":"2026-03-09T21:36:16.481664","MEAN_MOTION":15.29893494,"ECCENTRICITY":0.00095452,"INCLINATION":97.5469,"RA_OF_ASC_NODE":205.2839,"ARG_OF_PERICENTER":227.1432,"MEAN_ANOMALY":132.9007,"EPHEMERIS_TYPE":0,"CLASSIFICATION_TYPE":"U","NORAD_CAT_ID":59131,"ELEMENT_SET_NO":999,"REV_AT_EPOCH":11189,"BSTAR":0.0002974823,"MEAN_MOTION_DOT":8.544e-5,"MEAN_MOTION_DDOT":0},{"OBJECT_NAME":"STARLINK-35894","OBJECT_ID":"2025-263R","EPOCH":"2026-03-09T03:06:26.613216","MEAN_MOTION":15.27600519,"ECCENTRICITY":0.00019745,"INCLINATION":43.0052,"RA_OF_ASC_NODE":357.2906,"ARG_OF_PERICENTER":261.2199,"MEAN_ANOMALY":98.843,"EPHEMERIS_TYPE":0,"CLASSIFICATION_TYPE":"U","NORAD_CAT_ID":66500,"ELEMENT_SET_NO":999,"REV_AT_EPOCH":1877,"BSTAR":0.0011503418,"MEAN_MOTION_DOT":0.00031549,"MEAN_MOTION_DDOT":0}]
